{
  "type": "FeatureCollection",
  "features": [
    {
      "type": "Feature",
      "properties": {
        "norad_id": 31302,
        "name": "FENGYUN 1C DEB",
        "group": "fengyun-1c-debris",
        "lat": 18.707989531148066,
        "lon": 30.765014183173538,
        "alt_km": 782.3310421305032,
        "timestamp": "2025-12-17T13:48:37.836081+00:00",
        "meta_object_name": "FENGYUN 1C DEB",
        "meta_object_id": "1999-025BPL",
        "meta_epoch": "2025-12-17T02:04:57.059328",
        "meta_mean_motion": 14.27561304,
        "meta_eccentricity": 0.00266845,
        "meta_inclination": 99.414,
        "meta_ra_of_asc_node": 33.4598,
        "meta_arg_of_pericenter": 42.7026,
        "meta_mean_anomaly": 346.5219,
        "meta_ephemeris_type": 0,
        "meta_classification_type": "U",
        "meta_norad_cat_id": 31302,
        "meta_element_set_no": 999,
        "meta_rev_at_epoch": 96420,
        "meta_bstar": 0.0010670655,
        "meta_mean_motion_dot": 2.585e-05,
        "meta_mean_motion_ddot": 0,
        "tle_line1": "1 31302U 99025BPL 25351.08677152  .00002585  00000+0  10671-2 0  9992",
        "tle_line2": "2 31302  99.4140  33.4598 0026684  42.7026 346.5219 14.27561304964201"
      },
      "geometry": {
        "type": "Point",
        "coordinates": [
          30.765014183173538,
          18.707989531148066
        ]
      }
    },
    {
      "type": "Feature",
      "properties": {
        "norad_id": 31303,
        "name": "FENGYUN 1C DEB",
        "group": "fengyun-1c-debris",
        "lat": -1.0389153143567227,
        "lon": -172.53058772226862,
        "alt_km": 852.5518158310615,
        "timestamp": "2025-12-17T13:48:37.836091+00:00",
        "meta_object_name": "FENGYUN 1C DEB",
        "meta_object_id": "1999-025BPM",
        "meta_epoch": "2025-12-16T21:38:24.008064",
        "meta_mean_motion": 14.11026834,
        "meta_eccentricity": 0.00117848,
        "meta_inclination": 98.7043,
        "meta_ra_of_asc_node": 6.9757,
        "meta_arg_of_pericenter": 140.8786,
        "meta_mean_anomaly": 219.3239,
        "meta_ephemeris_type": 0,
        "meta_classification_type": "U",
        "meta_norad_cat_id": 31303,
        "meta_element_set_no": 999,
        "meta_rev_at_epoch": 96377,
        "meta_bstar": 0.00013953251,
        "meta_mean_motion_dot": 2.08e-06,
        "meta_mean_motion_ddot": 0,
        "tle_line1": "1 31303U 99025BPM 25350.90166676  .00000208  00000+0  13953-3 0  9994",
        "tle_line2": "2 31303  98.7043   6.9757 0011784 140.8786 219.3239 14.11026834963773"
      },
      "geometry": {
        "type": "Point",
        "coordinates": [
          -172.53058772226862,
          -1.0389153143567227
        ]
      }
    },
    {
      "type": "Feature",
      "properties": {
        "norad_id": 31311,
        "name": "FENGYUN 1C DEB",
        "group": "fengyun-1c-debris",
        "lat": -25.723170836976767,
        "lon": -111.30455689163757,
        "alt_km": 806.9863075645972,
        "timestamp": "2025-12-17T13:48:37.836101+00:00",
        "meta_object_name": "FENGYUN 1C DEB",
        "meta_object_id": "1999-025BPP",
        "meta_epoch": "2025-12-17T04:42:23.104800",
        "meta_mean_motion": 14.2978462,
        "meta_eccentricity": 0.00182203,
        "meta_inclination": 98.853,
        "meta_ra_of_asc_node": 72.6161,
        "meta_arg_of_pericenter": 73.7427,
        "meta_mean_anomaly": 340.6215,
        "meta_ephemeris_type": 0,
        "meta_classification_type": "U",
        "meta_norad_cat_id": 31311,
        "meta_element_set_no": 999,
        "meta_rev_at_epoch": 96285,
        "meta_bstar": 0.0013324859,
        "meta_mean_motion_dot": 3.385e-05,
        "meta_mean_motion_ddot": 0,
        "tle_line1": "1 31311U 99025BPP 25351.19610075  .00003385  00000+0  13325-2 0  9993",
        "tle_line2": "2 31311  98.8530  72.6161 0018220  73.7427 340.6215 14.29784620962854"
      },
      "geometry": {
        "type": "Point",
        "coordinates": [
          -111.30455689163757,
          -25.723170836976767
        ]
      }
    },
    {
      "type": "Feature",
      "properties": {
        "norad_id": 31312,
        "name": "FENGYUN 1C DEB",
        "group": "fengyun-1c-debris",
        "lat": -47.494072262063966,
        "lon": 147.30069411128605,
        "alt_km": 855.356643904769,
        "timestamp": "2025-12-17T13:48:37.836110+00:00",
        "meta_object_name": "FENGYUN 1C DEB",
        "meta_object_id": "1999-025BPQ",
        "meta_epoch": "2025-12-15T05:56:52.525824",
        "meta_mean_motion": 14.00925702,
        "meta_eccentricity": 0.00580012,
        "meta_inclination": 98.8604,
        "meta_ra_of_asc_node": 334.8421,
        "meta_arg_of_pericenter": 229.1743,
        "meta_mean_anomaly": 146.4845,
        "meta_ephemeris_type": 0,
        "meta_classification_type": "U",
        "meta_norad_cat_id": 31312,
        "meta_element_set_no": 999,
        "meta_rev_at_epoch": 95181,
        "meta_bstar": 0.00060391584,
        "meta_mean_motion_dot": 8.73e-06,
        "meta_mean_motion_ddot": 0,
        "tle_line1": "1 31312U 99025BPQ 25349.24783016  .00000873  00000+0  60392-3 0  9999",
        "tle_line2": "2 31312  98.8604 334.8421 0058001 229.1743 146.4845 14.00925702951810"
      },
      "geometry": {
        "type": "Point",
        "coordinates": [
          147.30069411128605,
          -47.494072262063966
        ]
      }
    },
    {
      "type": "Feature",
      "properties": {
        "norad_id": 31313,
        "name": "FENGYUN 1C DEB",
        "group": "fengyun-1c-debris",
        "lat": -72.59306780676349,
        "lon": -74.00876209179046,
        "alt_km": 839.8393521311773,
        "timestamp": "2025-12-17T13:48:37.836136+00:00",
        "meta_object_name": "FENGYUN 1C DEB",
        "meta_object_id": "1999-025BPR",
        "meta_epoch": "2025-12-16T22:58:12.373824",
        "meta_mean_motion": 14.22279607,
        "meta_eccentricity": 0.00448375,
        "meta_inclination": 99.0153,
        "meta_ra_of_asc_node": 254.9357,
        "meta_arg_of_pericenter": 168.9856,
        "meta_mean_anomaly": 191.2313,
        "meta_ephemeris_type": 0,
        "meta_classification_type": "U",
        "meta_norad_cat_id": 31313,
        "meta_element_set_no": 999,
        "meta_rev_at_epoch": 97122,
        "meta_bstar": 0.000258144,
        "meta_mean_motion_dot": 5.33e-06,
        "meta_mean_motion_ddot": 0,
        "tle_line1": "1 31313U 99025BPR 25350.95708766  .00000533  00000+0  25814-3 0  9992",
        "tle_line2": "2 31313  99.0153 254.9357 0044837 168.9856 191.2313 14.22279607971225"
      },
      "geometry": {
        "type": "Point",
        "coordinates": [
          -74.00876209179046,
          -72.59306780676349
        ]
      }
    },
    {
      "type": "Feature",
      "properties": {
        "norad_id": 31314,
        "name": "FENGYUN 1C DEB",
        "group": "fengyun-1c-debris",
        "lat": 32.20475507831008,
        "lon": -20.160736581586686,
        "alt_km": 836.9988486142402,
        "timestamp": "2025-12-17T13:48:37.836146+00:00",
        "meta_object_name": "FENGYUN 1C DEB",
        "meta_object_id": "1999-025BPS",
        "meta_epoch": "2025-12-15T05:15:13.860288",
        "meta_mean_motion": 14.04924587,
        "meta_eccentricity": 0.00787195,
        "meta_inclination": 98.8218,
        "meta_ra_of_asc_node": 343.1614,
        "meta_arg_of_pericenter": 350.4594,
        "meta_mean_anomaly": 9.5075,
        "meta_ephemeris_type": 0,
        "meta_classification_type": "U",
        "meta_norad_cat_id": 31314,
        "meta_element_set_no": 999,
        "meta_rev_at_epoch": 60849,
        "meta_bstar": 0.00034612113,
        "meta_mean_motion_dot": 5.29e-06,
        "meta_mean_motion_ddot": 0,
        "tle_line1": "1 31314U 99025BPS 25349.21891042  .00000529  00000+0  34612-3 0  9991",
        "tle_line2": "2 31314  98.8218 343.1614 0078719 350.4594   9.5075 14.04924587608491"
      },
      "geometry": {
        "type": "Point",
        "coordinates": [
          -20.160736581586686,
          32.20475507831008
        ]
      }
    },
    {
      "type": "Feature",
      "properties": {
        "norad_id": 31319,
        "name": "FENGYUN 1C DEB",
        "group": "fengyun-1c-debris",
        "lat": 67.49147303941609,
        "lon": 92.07112317523939,
        "alt_km": 870.6057545415479,
        "timestamp": "2025-12-17T13:48:37.836156+00:00",
        "meta_object_name": "FENGYUN 1C DEB",
        "meta_object_id": "1999-025BPX",
        "meta_epoch": "2025-12-17T05:16:54.475680",
        "meta_mean_motion": 13.75829991,
        "meta_eccentricity": 0.01706542,
        "meta_inclination": 98.8311,
        "meta_ra_of_asc_node": 249.7078,
        "meta_arg_of_pericenter": 75.0423,
        "meta_mean_anomaly": 75.3892,
        "meta_ephemeris_type": 0,
        "meta_classification_type": "U",
        "meta_norad_cat_id": 31319,
        "meta_element_set_no": 999,
        "meta_rev_at_epoch": 93749,
        "meta_bstar": 0.00015592409,
        "meta_mean_motion_dot": 1.29e-06,
        "meta_mean_motion_ddot": 0,
        "tle_line1": "1 31319U 99025BPX 25351.22007495  .00000129  00000+0  15592-3 0  9993",
        "tle_line2": "2 31319  98.8311 249.7078 0170654  75.0423  75.3892 13.75829991937490"
      },
      "geometry": {
        "type": "Point",
        "coordinates": [
          92.07112317523939,
          67.49147303941609
        ]
      }
    }
  ]
}